NORAD_CAT_ID,OBJECT_NAME,OBJECT_TYPE,EPOCH,MEAN_MOTION,ECCENTRICITY,INCLINATION,RA_OF_ASC_NODE,ARG_OF_PERICENTER,MEAN_ANOMALY,BSTAR,MEAN_MOTION_DOT,MEAN_MOTION_DDOT,TLE_LINE0,TLE_LINE1,TLE_LINE2,SEMIMAJOR_AXIS,PERIOD,APOGEE,PERIGEE,DECAYED
52575.0,STARLINK-3920,PAYLOAD,2023-02-26 06:48:34,15.08856828,0.0001277,53.2182,50.4624,109.1403,250.9727,0.00084209,0.00013145,0.0,0 STARLINK-3920,1 52575U 22051AR  23057.28372832  .00013145  00000-0  84209-3 0  9996,2 52575  53.2182  50.4624 0001277 109.1403 250.9727 15.08856828 44408,6917.829,95.436,540.577,538.811,0.0
52575.0,STARLINK-3920,PAYLOAD,2023-02-26 16:20:52,15.08850072,0.0001065,53.2172,48.678,91.3065,268.805,0.00039387,5.988e-05,0.0,0 STARLINK-3920,1 52575U 22051AR  23057.68116737  .00005988  00000-0  39387-3 0  9993,2 52575  53.2172  48.6780 0001065  91.3065 268.8050 15.08850072 44536,6917.85,95.437,540.451,538.978,0.0
52575.0,STARLINK-3920,PAYLOAD,2023-02-27 08:14:44,15.08846885,9.35e-05,53.2184,45.7061,101.1845,258.9253,0.00032459,4.883e-05,0.0,0 STARLINK-3920,1 52575U 22051AR  23058.34356863  .00004883  00000-0  32459-3 0  9999,2 52575  53.2184  45.7061 0000935 101.1845 258.9253 15.08846885 44633,6917.859,95.437,540.371,539.078,0.0
52575.0,STARLINK-3920,PAYLOAD,2023-02-27 16:11:39,15.08874947,0.0001394,53.2178,44.2167,85.1823,274.9329,0.0013087,0.00020621,0.0,0 STARLINK-3920,1 52575U 22051AR  23058.67476568  .00020621  00000-0  13087-2 0  9993,2 52575  53.2178  44.2167 0001394  85.1823 274.9329 15.08874947 44681,6917.774,95.435,540.603,538.674,0.0
52575.0,STARLINK-3920,PAYLOAD,2023-02-28 06:30:06,15.08897223,0.0001295,53.2174,41.54,82.6048,277.5091,0.0016412,0.00025969,0.0,0 STARLINK-3920,1 52575U 22051AR  23059.27091189  .00025969  00000-0  16412-2 0  9997,2 52575  53.2174  41.5400 0001295  82.6048 277.5091 15.08897223 44708,6917.705,95.434,540.466,538.675,0.0
52575.0,STARLINK-3920,PAYLOAD,2023-02-28 16:02:25,15.08846429,0.0002234,53.2184,39.7586,68.4987,291.6243,0.00094246,0.00014746,0.0,0 STARLINK-3920,1 52575U 22051AR  23059.66835571  .00014746  00000-0  94246-3 0  9994,2 52575  53.2184  39.7586 0002234  68.4987 291.6243 15.08846429 44833,6917.861,95.437,541.271,538.18,0.0
52575.0,STARLINK-3920,PAYLOAD,2023-03-01 04:45:32,15.08791629,0.0001766,53.2174,37.3782,89.1908,270.9286,0.00090204,0.00014078,0.0,0 STARLINK-3920,1 52575U 22051AR  23060.19829518  .00014078  00000-0  90204-3 0  9996,2 52575  53.2174  37.3782 0001766  89.1908 270.9286 15.08791629 44913,6918.028,95.441,541.115,538.672,0.0
52575.0,STARLINK-3920,PAYLOAD,2023-03-01 15:53:15,15.08817177,0.0001998,53.2186,35.2954,96.3022,263.8198,0.0015684,0.00024746,0.0,0 STARLINK-3920,1 52575U 22051AR  23060.66198497  .00024746  00000-0  15684-2 0  9994,2 52575  53.2186  35.2954 0001998  96.3022 263.8198 15.08817177 44985,6917.95,95.439,541.197,538.433,0.0
52575.0,STARLINK-3920,PAYLOAD,2023-03-02 03:00:57,15.08853018,0.0001899,53.2184,33.2139,95.6355,264.4854,0.0019664,0.00031157,0.0,0 STARLINK-3920,1 52575U 22051AR  23061.12566455  .00031157  00000-0  19664-2 0  9995,2 52575  53.2184  33.2139 0001899  95.6355 264.4854 15.08853018 45056,6917.841,95.437,541.019,538.392,0.0
52575.0,STARLINK-3920,PAYLOAD,2023-03-02 07:47:06,15.08869428,0.0001962,53.2188,32.3221,94.0685,266.0531,0.0021497,0.00034118,0.0,0 STARLINK-3920,1 52575U 22051AR  23061.32438136  .00034118  00000-0  21497-2 0  9998,2 52575  53.2188  32.3221 0001962  94.0685 266.0531 15.08869428 45010,6917.79,95.436,541.013,538.298,0.0
52575.0,STARLINK-3920,PAYLOAD,2023-03-03 06:02:29,15.08887533,0.0001934,53.2182,28.1594,85.7258,274.3955,0.0025317,0.00040288,0.0,0 STARLINK-3920,1 52575U 22051AR  23062.25173379  .00040288  00000-0  25317-2 0  9996,2 52575  53.2182  28.1594 0001934  85.7258 274.3955 15.08887533 45224,6917.735,95.435,540.938,538.262,0.0
52575.0,STARLINK-3920,PAYLOAD,2023-03-04 07:28:38,15.0889802,0.0001485,53.2185,23.402,88.5809,271.5354,0.0023881,0.00037984,0.0,0 STARLINK-3920,1 52575U 22051AR  23063.31155732  .00037984  00000-0  23881-2 0  9990,2 52575  53.2185  23.4020 0001485  88.5809 271.5354 15.08898020 45385,6917.703,95.434,540.595,538.541,0.0
52575.0,STARLINK-3920,PAYLOAD,2023-03-04 21:47:07,15.08843217,0.0001826,53.2173,20.7214,90.8002,269.32,0.00064498,9.993e-05,0.0,0 STARLINK-3920,1 52575U 22051AR  23063.90772600  .00009993  00000-0  64498-3 0  9993,2 52575  53.2173  20.7214 0001826  90.8002 269.3200 15.08843217 45470,6917.871,95.437,540.999,538.472,0.0
52575.0,STARLINK-3920,PAYLOAD,2023-03-06 05:34:50,15.08898302,0.0001183,53.218,14.7781,116.1147,243.9967,0.0023714,0.00037715,0.0,0 STARLINK-3920,1 52575U 22051AR  23065.23252521  .00037715  00000-0  23714-2 0  9994,2 52575  53.2180  14.7781 0001183 116.1147 243.9967 15.08898302 45673,6917.702,95.434,540.386,538.749,0.0
52575.0,STARLINK-3920,PAYLOAD,2023-03-06 07:10:12,15.08908862,0.0001032,53.2177,14.4803,103.5732,256.5375,0.0021974,0.00034923,0.0,0 STARLINK-3920,1 52575U 22051AR  23065.29876078  .00034923  00000-0  21974-2 0  9993,2 52575  53.2177  14.4803 0001032 103.5732 256.5375 15.08908862 45614,6917.67,95.433,540.249,538.821,0.0
52575.0,STARLINK-3920,PAYLOAD,2023-03-07 05:25:38,15.08829776,7.05e-05,53.2161,10.317,81.7635,278.3437,0.00070687,0.00010977,0.0,0 STARLINK-3920,1 52575U 22051AR  23066.22614116  .00010977  00000-0  70687-3 0  9999,2 52575  53.2161  10.3170 0000705  81.7635 278.3437 15.08829776 45824,6917.912,95.438,540.264,539.289,0.0
52575.0,STARLINK-3920,PAYLOAD,2023-03-07 07:01:02,15.0882538,5.72e-05,53.216,10.0204,73.1705,286.9349,0.001974,0.00031255,0.0,0 STARLINK-3920,1 52575U 22051AR  23066.29238445  .00031255  00000-0  19740-2 0  9997,2 52575  53.2160  10.0204 0000572  73.1705 286.9349 15.08825380 45760,6917.925,95.438,540.186,539.394,0.0
52575.0,STARLINK-3920,PAYLOAD,2023-03-08 05:16:25,15.08882184,5.71e-05,53.2161,5.8563,100.7816,259.3241,0.0021328,0.00033858,0.0,0 STARLINK-3920,1 52575U 22051AR  23067.21973689  .00033858  00000-0  21328-2 0  9992,2 52575  53.2161   5.8563 0000571 100.7816 259.3241 15.08882184 45973,6917.751,95.435,540.011,539.221,0.0
52575.0,STARLINK-3920,PAYLOAD,2023-03-09 00:21:03,15.08851529,7.75e-05,53.2163,2.2894,184.3091,175.7894,0.0019273,0.00030528,0.0,0 STARLINK-3920,1 52575U 22051AR  23068.01462057  .00030528  00000-0  19273-2 0  9990,2 52575  53.2163   2.2894 0000775 184.3091 175.7894 15.08851529 46090,6917.845,95.437,540.246,539.174,0.0
52575.0,STARLINK-3920,PAYLOAD,2023-03-09 01:56:26,15.08857052,9.02e-05,53.2181,1.9942,51.5302,308.5771,0.0026582,0.00042291,0.0,0 STARLINK-3920,1 52575U 22051AR  23068.08086621  .00042291  00000-0  26582-2 0  9997,2 52575  53.2181   1.9942 0000902  51.5302 308.5771 15.08857052 46033,6917.828,95.436,540.317,539.069,0.0
52575.0,STARLINK-3920,PAYLOAD,2023-03-10 04:57:58,15.08900393,0.0001008,53.2176,356.9365,57.3748,302.7341,0.002427,0.00038614,0.0,0 STARLINK-3920,1 52575U 22051AR  23069.20693184  .00038614  00000-0  24270-2 0  9996,2 52575  53.2176 356.9365 0001008  57.3748 302.7341 15.08900393 46277,6917.696,95.434,540.258,538.863,0.0
52575.0,STARLINK-3920,PAYLOAD,2023-03-11 06:24:08,15.08875644,8.6e-05,53.2174,352.1798,84.7399,275.3692,0.0015765,0.00024916,0.0,0 STARLINK-3920,1 52575U 22051AR  23070.26676763  .00024916  00000-0  15765-2 0  9997,2 52575  53.2174 352.1798 0000860  84.7399 275.3692 15.08875644 46436,6917.771,95.435,540.231,539.042,0.0
52575.0,STARLINK-3920,PAYLOAD,2023-03-11 19:07:15,15.08811949,0.0001328,53.2171,349.7994,96.783,263.3314,0.0011428,0.00017932,0.0,0 STARLINK-3920,1 52575U 22051AR  23070.79670319  .00017932  00000-0  11428-2 0  9998,2 52575  53.2171 349.7994 0001328  96.7830 263.3314 15.08811949 46511,6917.966,95.439,540.75,538.912,0.0
52575.0,STARLINK-3920,PAYLOAD,2023-03-12 03:04:11,15.08835168,0.0001143,53.2171,348.3147,76.4103,283.7017,0.0015258,0.00024075,0.0,0 STARLINK-3920,1 52575U 22051AR  23071.12790511  .00024075  00000-0  15258-2 0  9994,2 52575  53.2171 348.3147 0001143  76.4103 283.7017 15.08835168 46569,6917.895,95.438,540.551,538.969,0.0
52575.0,STARLINK-3920,PAYLOAD,2023-03-13 02:54:57,15.08858967,0.0001135,53.2173,343.8547,74.1329,285.9788,0.0010826,0.00016992,0.0,0 STARLINK-3920,1 52575U 22051AR  23072.12150288  .00016992  00000-0  10826-2 0  9991,2 52575  53.2173 343.8547 0001135  74.1329 285.9788 15.08858967 46719,6917.822,95.436,540.473,538.902,0.0
52575.0,STARLINK-3920,PAYLOAD,2023-03-13 21:59:36,15.08830823,8.22e-05,53.2171,340.2901,121.0962,239.0111,0.00047717,7.313e-05,0.0,0 STARLINK-3920,1 52575U 22051AR  23072.91638889  .00007313  00000-0  47717-3 0  9993,2 52575  53.2171 340.2901 0000822 121.0962 239.0111 15.08830823 46765,6917.908,95.438,540.342,539.205,0.0
52575.0,STARLINK-3920,PAYLOAD,2023-03-14 02:45:45,15.08840833,9.9e-05,53.2162,339.3932,87.3665,272.744,0.00030681,4.599e-05,0.0,0 STARLINK-3920,1 52575U 22051AR  23073.11510885  .00004599  00000-0  30681-3 0  9996,2 52575  53.2162 339.3932 0000990  87.3665 272.7440 15.08840833 46860,6917.878,95.438,540.428,539.058,0.0
52575.0,STARLINK-3920,PAYLOAD,2023-03-14 10:42:41,15.08840105,0.0001624,53.2171,337.906,50.6905,309.4231,0.00046396,7.104e-05,0.0,0 STARLINK-3920,1 52575U 22051AR  23073.44631326  .00007104  00000-0  46396-3 0  9991,2 52575  53.2171 337.9060 0001624  50.6905 309.4231 15.08840105 46847,6917.88,95.438,540.869,538.622,0.0
52575.0,STARLINK-3920,PAYLOAD,2023-03-14 21:50:23,15.08854874,0.0001582,53.2158,335.8266,49.8565,310.2566,0.00074447,0.00011585,0.0,0 STARLINK-3920,1 52575U 22051AR  23073.90998994  .00011585  00000-0  74447-3 0  9995,2 52575  53.2158 335.8266 0001582  49.8565 310.2566 15.08854874 46919,6917.835,95.437,540.794,538.606,0.0
52575.0,STARLINK-3920,PAYLOAD,2023-03-15 02:36:32,15.08874214,0.0001634,53.2157,334.9328,57.5602,302.5548,0.0024235,0.0003853,0.0,0 STARLINK-3920,1 52575U 22051AR  23074.10870711  .00038530  00000-0  24235-2 0  9992,2 52575  53.2157 334.9328 0001634  57.5602 302.5548 15.08874214 47019,6917.776,95.435,540.771,538.51,0.0
